{
  "type": "FeatureCollection",
  "features": [
    {
      "type": "Feature",
      "properties": {
        "norad_id": 41581,
        "name": "INTELSAT 31 (IS-31)",
        "group": "intelsat",
        "lat": -0.029021686603833113,
        "lon": -173.44165769579482,
        "alt_km": 35779.02851423656,
        "timestamp": "2025-12-04T13:52:00.115888+00:00",
        "meta_object_name": "INTELSAT 31 (IS-31)",
        "meta_object_id": "2016-035A",
        "meta_epoch": "2025-12-03T13:18:15.813216",
        "meta_mean_motion": 1.0027005,
        "meta_eccentricity": 0.00020986,
        "meta_inclination": 0.0165,
        "meta_ra_of_asc_node": 271.6332,
        "meta_arg_of_pericenter": 305.8436,
        "meta_mean_anomaly": 319.6781,
        "meta_ephemeris_type": 0,
        "meta_classification_type": "U",
        "meta_norad_cat_id": 41581,
        "meta_element_set_no": 999,
        "meta_rev_at_epoch": 3472,
        "meta_bstar": 0,
        "meta_mean_motion_dot": -1.33e-06,
        "meta_mean_motion_ddot": 0,
        "tle_line1": "1 41581U 16035A   25337.55434969 -.00000133  00000+0  00000+0 0  9995",
        "tle_line2": "2 41581   0.0165 271.6332 0002098 305.8436 319.6781  1.00270050 34721"
      },
      "geometry": {
        "type": "Point",
        "coordinates": [
          -173.44165769579482,
          -0.029021686603833113
        ]
      }
    },
    {
      "type": "Feature",
      "properties": {
        "norad_id": 41747,
        "name": "INTELSAT 36 (IS-36)",
        "group": "intelsat",
        "lat": 0.0028267181938647556,
        "lon": -9.863339008884571,
        "alt_km": 35781.66287631604,
        "timestamp": "2025-12-04T13:52:00.115900+00:00",
        "meta_object_name": "INTELSAT 36 (IS-36)",
        "meta_object_id": "2016-053A",
        "meta_epoch": "2025-12-04T01:57:38.699424",
        "meta_mean_motion": 1.00268863,
        "meta_eccentricity": 0.00015024,
        "meta_inclination": 0.0131,
        "meta_ra_of_asc_node": 2.8626,
        "meta_arg_of_pericenter": 313.3444,
        "meta_mean_anomaly": 214.8679,
        "meta_ephemeris_type": 0,
        "meta_classification_type": "U",
        "meta_norad_cat_id": 41747,
        "meta_element_set_no": 999,
        "meta_rev_at_epoch": 3399,
        "meta_bstar": 0,
        "meta_mean_motion_dot": -8e-08,
        "meta_mean_motion_ddot": 0,
        "tle_line1": "1 41747U 16053A   25338.08169791 -.00000008  00000+0  00000+0 0  9997",
        "tle_line2": "2 41747   0.0131   2.8626 0001502 313.3444 214.8679  1.00268863 33999"
      },
      "geometry": {
        "type": "Point",
        "coordinates": [
          -9.863339008884571,
          0.0028267181938647556
        ]
      }
    },
    {
      "type": "Feature",
      "properties": {
        "norad_id": 41945,
        "name": "INTELSAT 32E (IS-32E)",
        "group": "intelsat",
        "lat": -0.016839618400368146,
        "lon": -121.55341017105565,
        "alt_km": 35787.011443606694,
        "timestamp": "2025-12-04T13:52:00.115911+00:00",
        "meta_object_name": "INTELSAT 32E (IS-32E)",
        "meta_object_id": "2017-007B",
        "meta_epoch": "2025-12-04T06:40:19.217280",
        "meta_mean_motion": 1.00269217,
        "meta_eccentricity": 2.819e-05,
        "meta_inclination": 0.0333,
        "meta_ra_of_asc_node": 74.4043,
        "meta_arg_of_pericenter": 262.5397,
        "meta_mean_anomaly": 153.3136,
        "meta_ephemeris_type": 0,
        "meta_classification_type": "U",
        "meta_norad_cat_id": 41945,
        "meta_element_set_no": 999,
        "meta_rev_at_epoch": 3227,
        "meta_bstar": 0,
        "meta_mean_motion_dot": -2.53e-06,
        "meta_mean_motion_ddot": 0,
        "tle_line1": "1 41945U 17007B   25338.27800020 -.00000253  00000+0  00000+0 0  9997",
        "tle_line2": "2 41945   0.0333  74.4043 0000281 262.5397 153.3136  1.00269217 32275"
      },
      "geometry": {
        "type": "Point",
        "coordinates": [
          -121.55341017105565,
          -0.016839618400368146
        ]
      }
    },
    {
      "type": "Feature",
      "properties": {
        "norad_id": 42818,
        "name": "INTELSAT 35E (IS-35E)",
        "group": "intelsat",
        "lat": -0.020769119563688595,
        "lon": -112.85675093287547,
        "alt_km": 35776.292977592515,
        "timestamp": "2025-12-04T13:52:00.115923+00:00",
        "meta_object_name": "INTELSAT 35E (IS-35E)",
        "meta_object_id": "2017-041A",
        "meta_epoch": "2025-12-04T06:42:48.977856",
        "meta_mean_motion": 1.00270645,
        "meta_eccentricity": 0.0002436,
        "meta_inclination": 0.0021,
        "meta_ra_of_asc_node": 9.1743,
        "meta_arg_of_pericenter": 248.9142,
        "meta_mean_anomaly": 241.4921,
        "meta_ephemeris_type": 0,
        "meta_classification_type": "U",
        "meta_norad_cat_id": 42818,
        "meta_element_set_no": 999,
        "meta_rev_at_epoch": 3086,
        "meta_bstar": 0,
        "meta_mean_motion_dot": -2.22e-06,
        "meta_mean_motion_ddot": 0,
        "tle_line1": "1 42818U 17041A   25338.27973354 -.00000222  00000+0  00000+0 0  9992",
        "tle_line2": "2 42818   0.0021   9.1743 0002436 248.9142 241.4921  1.00270645 30862"
      },
      "geometry": {
        "type": "Point",
        "coordinates": [
          -112.85675093287547,
          -0.020769119563688595
        ]
      }
    },
    {
      "type": "Feature",
      "properties": {
        "norad_id": 42950,
        "name": "INTELSAT 37E (IS-37E)",
        "group": "intelsat",
        "lat": -0.03673923326268034,
        "lon": -96.35496074821287,
        "alt_km": 35772.243374350335,
        "timestamp": "2025-12-04T13:52:00.115934+00:00",
        "meta_object_name": "INTELSAT 37E (IS-37E)",
        "meta_object_id": "2017-059A",
        "meta_epoch": "2025-12-04T01:39:17.233344",
        "meta_mean_motion": 1.00270752,
        "meta_eccentricity": 0.00034695,
        "meta_inclination": 0.0176,
        "meta_ra_of_asc_node": 319.8059,
        "meta_arg_of_pericenter": 287.9884,
        "meta_mean_anomaly": 192.1826,
        "meta_ephemeris_type": 0,
        "meta_classification_type": "U",
        "meta_norad_cat_id": 42950,
        "meta_element_set_no": 999,
        "meta_rev_at_epoch": 3010,
        "meta_bstar": 0,
        "meta_mean_motion_dot": -1.24e-06,
        "meta_mean_motion_ddot": 0,
        "tle_line1": "1 42950U 17059A   25338.06894946 -.00000124  00000+0  00000+0 0  9995",
        "tle_line2": "2 42950   0.0176 319.8059 0003469 287.9884 192.1826  1.00270752 30106"
      },
      "geometry": {
        "type": "Point",
        "coordinates": [
          -96.35496074821287,
          -0.03673923326268034
        ]
      }
    },
    {
      "type": "Feature",
      "properties": {
        "norad_id": 43632,
        "name": "AZERSPACE 2 (IS-38)",
        "group": "intelsat",
        "lat": -0.008118018819187769,
        "lon": -33.2386016243453,
        "alt_km": 35783.16742290177,
        "timestamp": "2025-12-04T13:52:00.115961+00:00",
        "meta_object_name": "AZERSPACE 2 (IS-38)",
        "meta_object_id": "2018-074A",
        "meta_epoch": "2025-12-03T17:23:40.331904",
        "meta_mean_motion": 1.0027174,
        "meta_eccentricity": 0.00017416,
        "meta_inclination": 0.0176,
        "meta_ra_of_asc_node": 347.6047,
        "meta_arg_of_pericenter": 271.7152,
        "meta_mean_anomaly": 119.5202,
        "meta_ephemeris_type": 0,
        "meta_classification_type": "U",
        "meta_norad_cat_id": 43632,
        "meta_element_set_no": 999,
        "meta_rev_at_epoch": 2648,
        "meta_bstar": 0,
        "meta_mean_motion_dot": 1.54e-06,
        "meta_mean_motion_ddot": 0,
        "tle_line1": "1 43632U 18074A   25337.72477236  .00000154  00000+0  00000+0 0  9994",
        "tle_line2": "2 43632   0.0176 347.6047 0001741 271.7152 119.5202  1.00271740 26485"
      },
      "geometry": {
        "type": "Point",
        "coordinates": [
          -33.2386016243453,
          -0.008118018819187769
        ]
      }
    },
    {
      "type": "Feature",
      "properties": {
        "norad_id": 43633,
        "name": "HORIZONS-3E",
        "group": "intelsat",
        "lat": 0.0009839638989430032,
        "lon": 90.64987386495535,
        "alt_km": 35794.21858007072,
        "timestamp": "2025-12-04T13:52:00.115974+00:00",
        "meta_object_name": "HORIZONS-3E",
        "meta_object_id": "2018-074B",
        "meta_epoch": "2025-12-04T05:58:14.782080",
        "meta_mean_motion": 1.00264233,
        "meta_eccentricity": 0.00014859,
        "meta_inclination": 0.0356,
        "meta_ra_of_asc_node": 203.2483,
        "meta_arg_of_pericenter": 83.7127,
        "meta_mean_anomaly": 44.9509,
        "meta_ephemeris_type": 0,
        "meta_classification_type": "U",
        "meta_norad_cat_id": 43633,
        "meta_element_set_no": 999,
        "meta_rev_at_epoch": 2638,
        "meta_bstar": 0,
        "meta_mean_motion_dot": -1.6e-07,
        "meta_mean_motion_ddot": 0,
        "tle_line1": "1 43633U 18074B   25338.24878220 -.00000016  00000+0  00000+0 0  9999",
        "tle_line2": "2 43633   0.0356 203.2483 0001485  83.7127  44.9509  1.00264233 26384"
      },
      "geometry": {
        "type": "Point",
        "coordinates": [
          90.64987386495535,
          0.0009839638989430032
        ]
      }
    }
  ]
}